ONEWEB-0240             
1 48785U 21045U   23281.52175493 -.00000046  00000+0 -15495-3 0  9994
2 48785  87.8932  94.8267 0001743  70.9607 289.1712 13.15551480116327
ONEWEB-0246             
1 48786U 21045V   23281.74569018 -.00000053  00000+0 -17487-3 0  9990
2 48786  87.8935  94.7834 0002022  77.8826 282.2530 13.15545984115109
ONEWEB-0210             
1 48787U 21045W   23281.87245952  .00000060  00000+0  12654-3 0  9990
2 48787  87.8935  94.7666 0002532  86.1764 273.9656 13.15546162115164
ONEWEB-0214             
1 48788U 21045X   23281.88303006 -.00000011  00000+0 -63182-4 0  9998
2 48788  87.8937  94.7534 0002491  88.9634 271.1781 13.15551157115137
ONEWEB-0221             
1 48789U 21045Y   23281.88935435 -.00000072  00000+0 -22596-3 0  9996
2 48789  87.8939  94.7631 0001806  79.2425 280.8909 13.15545911115228
ONEWEB-0213             
1 48790U 21045Z   23281.72458752  .00000192  00000+0  47669-3 0  9992
2 48790  87.8937  94.8136 0001999  77.2710 282.8644 13.15548767115261
ONEWEB-0212             
1 48791U 21045AA  23281.85766906  .00000100  00000+0  23065-3 0  9993
2 48791  87.8933  94.7677 0001516  93.4477 266.6827 13.15550901115279
ONEWEB-0227             
1 48792U 21045AB  23281.85133247  .00000205  00000+0  51050-3 0  9991
2 48792  87.8935  94.7835 0001652  83.0184 277.1134 13.15547421115225
